{
  "type": "FeatureCollection",
  "features": [
    {
      "type": "Feature",
      "properties": {
        "norad_id": 66535,
        "name": "STARLINK-35514",
        "group": "last-30-days",
        "lat": -20.46009578556501,
        "lon": 42.22170950752245,
        "alt_km": 416.5112752312707,
        "timestamp": "2025-12-10T16:57:10.415857+00:00",
        "meta_object_name": "STARLINK-35514",
        "meta_object_id": "2025-265V",
        "meta_epoch": "2025-12-10T12:00:02.998944",
        "meta_mean_motion": 15.5063046,
        "meta_eccentricity": 0.0001381,
        "meta_inclination": 42.9997,
        "meta_ra_of_asc_node": 67.031,
        "meta_arg_of_pericenter": 271.3142,
        "meta_mean_anomaly": 344.7202,
        "meta_ephemeris_type": 0,
        "meta_classification_type": "U",
        "meta_norad_cat_id": 66535,
        "meta_element_set_no": 999,
        "meta_rev_at_epoch": 463,
        "meta_bstar": -0.002305,
        "meta_mean_motion_dot": -0.00133529,
        "meta_mean_motion_ddot": 0,
        "tle_line1": "1 66535U 25265V   25344.50003471 -.00133529  00000+0 -23050-2 0  9999",
        "tle_line2": "2 66535  42.9997  67.0310 0001381 271.3142 344.7202 15.50630460  4632"
      },
      "geometry": {
        "type": "Point",
        "coordinates": [
          42.22170950752245,
          -20.46009578556501
        ]
      }
    },
    {
      "type": "Feature",
      "properties": {
        "norad_id": 66536,
        "name": "STARLINK-35640",
        "group": "last-30-days",
        "lat": -19.248786006358625,
        "lon": 43.81082791643609,
        "alt_km": 416.42989292411403,
        "timestamp": "2025-12-10T16:57:10.415866+00:00",
        "meta_object_name": "STARLINK-35640",
        "meta_object_id": "2025-265W",
        "meta_epoch": "2025-12-10T12:00:02.998944",
        "meta_mean_motion": 15.50658602,
        "meta_eccentricity": 0.000141,
        "meta_inclination": 42.9997,
        "meta_ra_of_asc_node": 67.026,
        "meta_arg_of_pericenter": 269.4899,
        "meta_mean_anomaly": 348.46,
        "meta_ephemeris_type": 0,
        "meta_classification_type": "U",
        "meta_norad_cat_id": 66536,
        "meta_element_set_no": 999,
        "meta_rev_at_epoch": 461,
        "meta_bstar": -0.0032479,
        "meta_mean_motion_dot": -0.00186931,
        "meta_mean_motion_ddot": 0,
        "tle_line1": "1 66536U 25265W   25344.50003471 -.00186931  00000+0 -32479-2 0  9990",
        "tle_line2": "2 66536  42.9997  67.0260 0001410 269.4899 348.4600 15.50658602  4616"
      },
      "geometry": {
        "type": "Point",
        "coordinates": [
          43.81082791643609,
          -19.248786006358625
        ]
      }
    },
    {
      "type": "Feature",
      "properties": {
        "norad_id": 66537,
        "name": "STARLINK-35582",
        "group": "last-30-days",
        "lat": -18.033257243026615,
        "lon": 45.365185982829296,
        "alt_km": 416.48654748577064,
        "timestamp": "2025-12-10T16:57:10.415876+00:00",
        "meta_object_name": "STARLINK-35582",
        "meta_object_id": "2025-265X",
        "meta_epoch": "2025-12-10T12:00:02.998944",
        "meta_mean_motion": 15.50648869,
        "meta_eccentricity": 0.0001367,
        "meta_inclination": 42.9998,
        "meta_ra_of_asc_node": 67.0215,
        "meta_arg_of_pericenter": 261.8903,
        "meta_mean_anomaly": 357.9777,
        "meta_ephemeris_type": 0,
        "meta_classification_type": "U",
        "meta_norad_cat_id": 66537,
        "meta_element_set_no": 999,
        "meta_rev_at_epoch": 463,
        "meta_bstar": -0.0029602,
        "meta_mean_motion_dot": -0.00170696,
        "meta_mean_motion_ddot": 0,
        "tle_line1": "1 66537U 25265X   25344.50003471 -.00170696  00000+0 -29602-2 0  9996",
        "tle_line2": "2 66537  42.9998  67.0215 0001367 261.8903 357.9777 15.50648869  4637"
      },
      "geometry": {
        "type": "Point",
        "coordinates": [
          45.365185982829296,
          -18.033257243026615
        ]
      }
    },
    {
      "type": "Feature",
      "properties": {
        "norad_id": 66538,
        "name": "STARLINK-35577",
        "group": "last-30-days",
        "lat": -16.796823400595017,
        "lon": 46.90844369016484,
        "alt_km": 416.23592783714867,
        "timestamp": "2025-12-10T16:57:10.415888+00:00",
        "meta_object_name": "STARLINK-35577",
        "meta_object_id": "2025-265Y",
        "meta_epoch": "2025-12-10T12:00:02.998944",
        "meta_mean_motion": 15.50669847,
        "meta_eccentricity": 0.0001414,
        "meta_inclination": 42.9999,
        "meta_ra_of_asc_node": 67.0168,
        "meta_arg_of_pericenter": 271.0615,
        "meta_mean_anomaly": 350.7251,
        "meta_ephemeris_type": 0,
        "meta_classification_type": "U",
        "meta_norad_cat_id": 66538,
        "meta_element_set_no": 999,
        "meta_rev_at_epoch": 463,
        "meta_bstar": -0.0036904,
        "meta_mean_motion_dot": -0.00211772,
        "meta_mean_motion_ddot": 0,
        "tle_line1": "1 66538U 25265Y   25344.50003471 -.00211772  00000+0 -36904-2 0  9991",
        "tle_line2": "2 66538  42.9999  67.0168 0001414 271.0615 350.7251 15.50669847  4639"
      },
      "geometry": {
        "type": "Point",
        "coordinates": [
          46.90844369016484,
          -16.796823400595017
        ]
      }
    },
    {
      "type": "Feature",
      "properties": {
        "norad_id": 66539,
        "name": "STARLINK-35697",
        "group": "last-30-days",
        "lat": -15.560899762326578,
        "lon": 48.41608754060378,
        "alt_km": 416.14290044552035,
        "timestamp": "2025-12-10T16:57:10.415898+00:00",
        "meta_object_name": "STARLINK-35697",
        "meta_object_id": "2025-265Z",
        "meta_epoch": "2025-12-10T12:00:02.998944",
        "meta_mean_motion": 15.5064802,
        "meta_eccentricity": 0.0001435,
        "meta_inclination": 42.9999,
        "meta_ra_of_asc_node": 67.0111,
        "meta_arg_of_pericenter": 271.558,
        "meta_mean_anomaly": 352.146,
        "meta_ephemeris_type": 0,
        "meta_classification_type": "U",
        "meta_norad_cat_id": 66539,
        "meta_element_set_no": 999,
        "meta_rev_at_epoch": 463,
        "meta_bstar": -0.0028767,
        "meta_mean_motion_dot": -0.00165983,
        "meta_mean_motion_ddot": 0,
        "tle_line1": "1 66539U 25265Z   25344.50003471 -.00165983  00000+0 -28767-2 0  9992",
        "tle_line2": "2 66539  42.9999  67.0111 0001435 271.5580 352.1460 15.50648020  4635"
      },
      "geometry": {
        "type": "Point",
        "coordinates": [
          48.41608754060378,
          -15.560899762326578
        ]
      }
    },
    {
      "type": "Feature",
      "properties": {
        "norad_id": 66540,
        "name": "STARLINK-35818",
        "group": "last-30-days",
        "lat": -14.312710655406278,
        "lon": 49.90952658320631,
        "alt_km": 416.0178828133876,
        "timestamp": "2025-12-10T16:57:10.415907+00:00",
        "meta_object_name": "STARLINK-35818",
        "meta_object_id": "2025-265AA",
        "meta_epoch": "2025-12-10T12:00:02.998944",
        "meta_mean_motion": 15.50635103,
        "meta_eccentricity": 0.000145,
        "meta_inclination": 42.9999,
        "meta_ra_of_asc_node": 67.0069,
        "meta_arg_of_pericenter": 274.2179,
        "meta_mean_anomaly": 351.4043,
        "meta_ephemeris_type": 0,
        "meta_classification_type": "U",
        "meta_norad_cat_id": 66540,
        "meta_element_set_no": 999,
        "meta_rev_at_epoch": 463,
        "meta_bstar": -0.0025145,
        "meta_mean_motion_dot": -0.0014544,
        "meta_mean_motion_ddot": 0,
        "tle_line1": "1 66540U 25265AA  25344.50003471 -.00145440  00000+0 -25145-2 0  9997",
        "tle_line2": "2 66540  42.9999  67.0069 0001450 274.2179 351.4043 15.50635103  4637"
      },
      "geometry": {
        "type": "Point",
        "coordinates": [
          49.90952658320631,
          -14.312710655406278
        ]
      }
    },
    {
      "type": "Feature",
      "properties": {
        "norad_id": 66541,
        "name": "STARLINK-35796",
        "group": "last-30-days",
        "lat": -13.048679482345134,
        "lon": 51.39284364845111,
        "alt_km": 415.9304782781901,
        "timestamp": "2025-12-10T16:57:10.415917+00:00",
        "meta_object_name": "STARLINK-35796",
        "meta_object_id": "2025-265AB",
        "meta_epoch": "2025-12-10T12:00:02.998944",
        "meta_mean_motion": 15.50640379,
        "meta_eccentricity": 0.0001469,
        "meta_inclination": 42.9998,
        "meta_ra_of_asc_node": 67.0016,
        "meta_arg_of_pericenter": 273.0856,
        "meta_mean_anomaly": 354.4555,
        "meta_ephemeris_type": 0,
        "meta_classification_type": "U",
        "meta_norad_cat_id": 66541,
        "meta_element_set_no": 999,
        "meta_rev_at_epoch": 463,
        "meta_bstar": -0.0027064,
        "meta_mean_motion_dot": -0.00156329,
        "meta_mean_motion_ddot": 0,
        "tle_line1": "1 66541U 25265AB  25344.50003471 -.00156329  00000+0 -27064-2 0  9998",
        "tle_line2": "2 66541  42.9998  67.0016 0001469 273.0856 354.4555 15.50640379  4630"
      },
      "geometry": {
        "type": "Point",
        "coordinates": [
          51.39284364845111,
          -13.048679482345134
        ]
      }
    }
  ]
}